{
    "links": {
        "self": "http://www.neowsapp.com/rest/v1/neo/3549679?api_key=iIulBulltgU6a56xZRHN4H3l9WmuAYTsLGpBGhQ2"
    },
    "id": "3549679",
    "neo_reference_id": "3549679",
    "name": "(2010 UM)",
    "designation": "2010 UM",
    "nasa_jpl_url": "http://ssd.jpl.nasa.gov/sbdb.cgi?sstr=3549679",
    "absolute_magnitude_h": 22.2,
    "estimated_diameter": {
        "kilometers": {
            "estimated_diameter_min": 0.096506147,
            "estimated_diameter_max": 0.2157943048
        },
        "meters": {
            "estimated_diameter_min": 96.5061469579,
            "estimated_diameter_max": 215.7943048444
        },
        "miles": {
            "estimated_diameter_min": 0.059966121,
            "estimated_diameter_max": 0.134088323
        },
        "feet": {
            "estimated_diameter_min": 316.6212271853,
            "estimated_diameter_max": 707.9865871058
        }
    },
    "is_potentially_hazardous_asteroid": false,
    "close_approach_data": [
        {
            "close_approach_date": "1992-04-27",
            "close_approach_date_full": "1992-Apr-27 16:19",
            "epoch_date_close_approach": 704391540000,
            "relative_velocity": {
                "kilometers_per_second": "8.488979569",
                "kilometers_per_hour": "30560.3264484464",
                "miles_per_hour": "18988.998397925"
            },
            "miss_distance": {
                "astronomical": "0.082364388",
                "lunar": "32.039746932",
                "kilometers": "12321537.00865356",
                "miles": "7656248.072236728"
            },
            "orbiting_body": "Mars"
        },
        {
            "close_approach_date": "2010-10-26",
            "close_approach_date_full": "2010-Oct-26 07:18",
            "epoch_date_close_approach": 1288077480000,
            "relative_velocity": {
                "kilometers_per_second": "2.8794022611",
                "kilometers_per_hour": "10365.8481401121",
                "miles_per_hour": "6440.9349179491"
            },
            "miss_distance": {
                "astronomical": "0.2206758332",
                "lunar": "85.8428991148",
                "kilometers": "33012634.607195284",
                "miles": "20513099.9398275592"
            },
            "orbiting_body": "Earth"
        },
        {
            "close_approach_date": "2023-10-14",
            "close_approach_date_full": "2023-Oct-14 03:03",
            "epoch_date_close_approach": 1697252580000,
            "relative_velocity": {
                "kilometers_per_second": "3.0020695285",
                "kilometers_per_hour": "10807.4503026503",
                "miles_per_hour": "6715.3293283329"
            },
            "miss_distance": {
                "astronomical": "0.2282154123",
                "lunar": "88.7757953847",
                "kilometers": "34140539.581251801",
                "miles": "21213947.5919688138"
            },
            "orbiting_body": "Earth"
        },
        {
            "close_approach_date": "2047-08-26",
            "close_approach_date_full": "2047-Aug-26 12:55",
            "epoch_date_close_approach": 2450436900000,
            "relative_velocity": {
                "kilometers_per_second": "8.5912496794",
                "kilometers_per_hour": "30928.498845995",
                "miles_per_hour": "19217.7664079462"
            },
            "miss_distance": {
                "astronomical": "0.0997820886",
                "lunar": "38.8152324654",
                "kilometers": "14927187.918711282",
                "miles": "9275324.4701764116"
            },
            "orbiting_body": "Mars"
        }
    ],
    "orbital_data": {
        "orbit_id": "17",
        "orbit_determination_date": "2017-04-06 08:56:11",
        "first_observation_date": "2010-10-17",
        "last_observation_date": "2010-12-10",
        "data_arc_in_days": 54,
        "observations_used": 56,
        "orbit_uncertainty": "5",
        "minimum_orbit_intersection": ".196999",
        "jupiter_tisserand_invariant": "3.865",
        "epoch_osculation": "2459000.5",
        "eccentricity": ".3715686848608684",
        "semi_major_axis": "1.894089000989247",
        "inclination": "3.791537140422525",
        "ascending_node_longitude": "47.96551607026092",
        "orbital_period": "952.1360307798853",
        "perihelion_distance": "1.190304841882236",
        "perihelion_argument": "340.2942185247878",
        "aphelion_distance": "2.597873160096257",
        "perihelion_time": "2459294.455950755003",
        "mean_anomaly": "248.8560679873424",
        "mean_motion": ".3780972343890058",
        "equinox": "J2000",
        "orbit_class": {
            "orbit_class_type": "AMO",
            "orbit_class_description": "Near-Earth asteroid orbits similar to that of 1221 Amor",
            "orbit_class_range": "1.017 AU < q (perihelion) < 1.3 AU"
        }
    },
    "is_sentry_object": false
}